{
  "norad_id": 46155,
  "name": "STARLINK-1667",
  "history": [
    {
      "epoch": "2026-03-28T09:07:45.375456",
      "apogee_km": 365.1363693069816,
      "perigee_km": 362.55769525431515,
      "latitude_deg": 35.180936657048754,
      "longitude_deg": -87.98291615978815,
      "semi_major_axis_km": 6741.9840322806485,
      "eccentricity": 0.00019124,
      "inclination_deg": 53.0223,
      "raan_deg": 132.8097,
      "arg_perigee_deg": 302.9296,
      "mean_anomaly_deg": 57.1536,
      "mean_motion_rev_day": 15.68271256
    }
  ]
}