{"fetched_at":"2026-03-29T02:12:04Z","count":15717,"tles":[{"name":"STARLINK-1667","line1":"1 46155U 20057AQ  26087.38038629  .00103668  00000+0  90152-3 0  9990","line2":"2 46155  53.0223 132.8097 0001912 302.9296  57.1536 15.68271256311524","category":"Starlink"}]}